{"type": "FeatureCollection", "features": [{"type": "Feature", "geometry": {"type": "Point", "coordinates": [76.163109, 11.5157]}, "properties": {"area": "wayanad", "area_m2": 1400.0, "pre_date": "2024-03-11", "post_date": "2025-02-24", "source": "sentinel2_ndvi_change", "verified": false}}, {"type": "Feature", "geometry": {"type": "Point", "coordinates": [76.162693, 11.514933]}, "properties": {"area": "wayanad", "area_m2": 1500.0, "pre_date": "2024-03-11", "post_date": "2025-02-24", "source": "sentinel2_ndvi_change", "verified": false}}, {"type": "Feature", "geometry": {"type": "Point", "coordinates": [76.171491, 11.514175]}, "properties": {"area": "wayanad", "area_m2": 900.0, "pre_date": "2024-03-11", "post_date": "2025-02-24", "source": "sentinel2_ndvi_change", "verified": false}}, {"type": "Feature", "geometry": {"type": "Point", "coordinates": [76.163412, 11.513703]}, "properties": {"area": "wayanad", "area_m2": 1900.0, "pre_date": "2024-03-11", "post_date": "2025-02-24", "source": "sentinel2_ndvi_change", "verified": false}}, {"type": "Feature", "geometry": {"type": "Point", "coordinates": [76.148402, 11.480196]}, "properties": {"area": "wayanad", "area_m2": 7700.0, "pre_date": "2024-03-11", "post_date": "2025-02-24", "source": "sentinel2_ndvi_change", "verified": false}}, {"type": "Feature", "geometry": {"type": "Point", "coordinates": [76.147002, 11.477743]}, "properties": {"area": "wayanad", "area_m2": 2800.0, "pre_date": "2024-03-11", "post_date": "2025-02-24", "source": "sentinel2_ndvi_change", "verified": false}}, {"type": "Feature", "geometry": {"type": "Point", "coordinates": [76.146443, 11.475657]}, "properties": {"area": "wayanad", "area_m2": 14200.0, "pre_date": "2024-03-11", "post_date": "2025-02-24", "source": "sentinel2_ndvi_change", "verified": false}}, {"type": "Feature", "geometry": {"type": "Point", "coordinates": [76.143708, 11.473393]}, "properties": {"area": "wayanad", "area_m2": 43400.0, "pre_date": "2024-03-11", "post_date": "2025-02-24", "source": "sentinel2_ndvi_change", "verified": false}}, {"type": "Feature", "geometry": {"type": "Point", "coordinates": [76.141863, 11.471353]}, "properties": {"area": "wayanad", "area_m2": 4300.0, "pre_date": "2024-03-11", "post_date": "2025-02-24", "source": "sentinel2_ndvi_change", "verified": false}}, {"type": "Feature", "geometry": {"type": "Point", "coordinates": [76.137522, 11.467622]}, "properties": {"area": "wayanad", "area_m2": 121800.0, "pre_date": "2024-03-11", "post_date": "2025-02-24", "source": "sentinel2_ndvi_change", "verified": false}}, {"type": "Feature", "geometry": {"type": "Point", "coordinates": [76.00479, 11.310825]}, "properties": {"area": "kozhikode", "area_m2": 1500.0, "pre_date": "2024-03-11", "post_date": "2025-02-24", "source": "sentinel2_ndvi_change", "verified": false}}, {"type": "Feature", "geometry": {"type": "Point", "coordinates": [76.994684, 9.996354]}, "properties": {"area": "idukki", "area_m2": 900.0, "pre_date": "2024-03-08", "post_date": "2025-02-21", "source": "sentinel2_ndvi_change", "verified": false}}, {"type": "Feature", "geometry": {"type": "Point", "coordinates": [77.049516, 9.994792]}, "properties": {"area": "idukki", "area_m2": 1500.0, "pre_date": "2024-03-08", "post_date": "2025-02-21", "source": "sentinel2_ndvi_change", "verified": false}}, {"type": "Feature", "geometry": {"type": "Point", "coordinates": [77.006466, 9.993387]}, "properties": {"area": "idukki", "area_m2": 2500.0, "pre_date": "2024-03-08", "post_date": "2025-02-21", "source": "sentinel2_ndvi_change", "verified": false}}, {"type": "Feature", "geometry": {"type": "Point", "coordinates": [76.983852, 9.99208]}, "properties": {"area": "idukki", "area_m2": 1600.0, "pre_date": "2024-03-08", "post_date": "2025-02-21", "source": "sentinel2_ndvi_change", "verified": false}}, {"type": "Feature", "geometry": {"type": "Point", "coordinates": [76.955474, 9.989084]}, "properties": {"area": "idukki", "area_m2": 1200.0, "pre_date": "2024-03-08", "post_date": "2025-02-21", "source": "sentinel2_ndvi_change", "verified": false}}, {"type": "Feature", "geometry": {"type": "Point", "coordinates": [77.035604, 9.976828]}, "properties": {"area": "idukki", "area_m2": 12600.0, "pre_date": "2024-03-08", "post_date": "2025-02-21", "source": "sentinel2_ndvi_change", "verified": false}}, {"type": "Feature", "geometry": {"type": "Point", "coordinates": [77.046923, 9.965123]}, "properties": {"area": "idukki", "area_m2": 1500.0, "pre_date": "2024-03-08", "post_date": "2025-02-21", "source": "sentinel2_ndvi_change", "verified": false}}, {"type": "Feature", "geometry": {"type": "Point", "coordinates": [76.986468, 9.949715]}, "properties": {"area": "idukki", "area_m2": 1200.0, "pre_date": "2024-03-08", "post_date": "2025-02-21", "source": "sentinel2_ndvi_change", "verified": false}}, {"type": "Feature", "geometry": {"type": "Point", "coordinates": [77.04868, 9.940822]}, "properties": {"area": "idukki", "area_m2": 2900.0, "pre_date": "2024-03-08", "post_date": "2025-02-21", "source": "sentinel2_ndvi_change", "verified": false}}, {"type": "Feature", "geometry": {"type": "Point", "coordinates": [77.097193, 9.923064]}, "properties": {"area": "idukki", "area_m2": 2900.0, "pre_date": "2024-03-08", "post_date": "2025-02-21", "source": "sentinel2_ndvi_change", "verified": false}}, {"type": "Feature", "geometry": {"type": "Point", "coordinates": [76.981481, 9.893745]}, "properties": {"area": "idukki", "area_m2": 900.0, "pre_date": "2024-03-08", "post_date": "2025-02-21", "source": "sentinel2_ndvi_change", "verified": false}}, {"type": "Feature", "geometry": {"type": "Point", "coordinates": [77.082895, 9.871619]}, "properties": {"area": "idukki", "area_m2": 900.0, "pre_date": "2024-03-08", "post_date": "2025-02-21", "source": "sentinel2_ndvi_change", "verified": false}}, {"type": "Feature", "geometry": {"type": "Point", "coordinates": [77.01328, 9.860924]}, "properties": {"area": "idukki", "area_m2": 900.0, "pre_date": "2024-03-08", "post_date": "2025-02-21", "source": "sentinel2_ndvi_change", "verified": false}}, {"type": "Feature", "geometry": {"type": "Point", "coordinates": [75.47457, 12.286525]}, "properties": {"area": "kannur", "area_m2": 900.0, "pre_date": "2024-03-26", "post_date": "2025-02-24", "source": "sentinel2_ndvi_change", "verified": false}}, {"type": "Feature", "geometry": {"type": "Point", "coordinates": [75.47365, 12.28612]}, "properties": {"area": "kannur", "area_m2": 1200.0, "pre_date": "2024-03-26", "post_date": "2025-02-24", "source": "sentinel2_ndvi_change", "verified": false}}, {"type": "Feature", "geometry": {"type": "Point", "coordinates": [75.474618, 12.286035]}, "properties": {"area": "kannur", "area_m2": 1900.0, "pre_date": "2024-03-26", "post_date": "2025-02-24", "source": "sentinel2_ndvi_change", "verified": false}}, {"type": "Feature", "geometry": {"type": "Point", "coordinates": [75.411289, 12.277268]}, "properties": {"area": "kannur", "area_m2": 1800.0, "pre_date": "2024-03-26", "post_date": "2025-02-24", "source": "sentinel2_ndvi_change", "verified": false}}, {"type": "Feature", "geometry": {"type": "Point", "coordinates": [75.469981, 12.261972]}, "properties": {"area": "kannur", "area_m2": 2300.0, "pre_date": "2024-03-26", "post_date": "2025-02-24", "source": "sentinel2_ndvi_change", "verified": false}}, {"type": "Feature", "geometry": {"type": "Point", "coordinates": [75.423751, 12.25473]}, "properties": {"area": "kannur", "area_m2": 2500.0, "pre_date": "2024-03-26", "post_date": "2025-02-24", "source": "sentinel2_ndvi_change", "verified": false}}, {"type": "Feature", "geometry": {"type": "Point", "coordinates": [75.400575, 12.246221]}, "properties": {"area": "kannur", "area_m2": 900.0, "pre_date": "2024-03-26", "post_date": "2025-02-24", "source": "sentinel2_ndvi_change", "verified": false}}, {"type": "Feature", "geometry": {"type": "Point", "coordinates": [75.425211, 12.243245]}, "properties": {"area": "kannur", "area_m2": 1800.0, "pre_date": "2024-03-26", "post_date": "2025-02-24", "source": "sentinel2_ndvi_change", "verified": false}}, {"type": "Feature", "geometry": {"type": "Point", "coordinates": [75.428974, 12.233346]}, "properties": {"area": "kannur", "area_m2": 3900.0, "pre_date": "2024-03-26", "post_date": "2025-02-24", "source": "sentinel2_ndvi_change", "verified": false}}, {"type": "Feature", "geometry": {"type": "Point", "coordinates": [75.413459, 12.224408]}, "properties": {"area": "kannur", "area_m2": 1200.0, "pre_date": "2024-03-26", "post_date": "2025-02-24", "source": "sentinel2_ndvi_change", "verified": false}}, {"type": "Feature", "geometry": {"type": "Point", "coordinates": [75.402788, 12.220083]}, "properties": {"area": "kannur", "area_m2": 1200.0, "pre_date": "2024-03-26", "post_date": "2025-02-24", "source": "sentinel2_ndvi_change", "verified": false}}, {"type": "Feature", "geometry": {"type": "Point", "coordinates": [75.53539, 12.213437]}, "properties": {"area": "kannur", "area_m2": 900.0, "pre_date": "2024-03-26", "post_date": "2025-02-24", "source": "sentinel2_ndvi_change", "verified": false}}, {"type": "Feature", "geometry": {"type": "Point", "coordinates": [75.535205, 12.212895]}, "properties": {"area": "kannur", "area_m2": 900.0, "pre_date": "2024-03-26", "post_date": "2025-02-24", "source": "sentinel2_ndvi_change", "verified": false}}, {"type": "Feature", "geometry": {"type": "Point", "coordinates": [75.504933, 12.209112]}, "properties": {"area": "kannur", "area_m2": 3700.0, "pre_date": "2024-03-26", "post_date": "2025-02-24", "source": "sentinel2_ndvi_change", "verified": false}}, {"type": "Feature", "geometry": {"type": "Point", "coordinates": [75.461836, 12.208235]}, "properties": {"area": "kannur", "area_m2": 900.0, "pre_date": "2024-03-26", "post_date": "2025-02-24", "source": "sentinel2_ndvi_change", "verified": false}}, {"type": "Feature", "geometry": {"type": "Point", "coordinates": [76.900822, 9.421362]}, "properties": {"area": "pathanamthitta", "area_m2": 2100.0, "pre_date": "2024-03-03", "post_date": "2025-02-21", "source": "sentinel2_ndvi_change", "verified": false}}, {"type": "Feature", "geometry": {"type": "Point", "coordinates": [76.909858, 9.368027]}, "properties": {"area": "pathanamthitta", "area_m2": 15500.0, "pre_date": "2024-03-03", "post_date": "2025-02-21", "source": "sentinel2_ndvi_change", "verified": false}}, {"type": "Feature", "geometry": {"type": "Point", "coordinates": [76.743464, 10.842217]}, "properties": {"area": "palakkad", "area_m2": 900.0, "pre_date": "2024-03-03", "post_date": "2025-02-21", "source": "sentinel2_ndvi_change", "verified": false}}]}